{"type": "FeatureCollection", "features": [ {"type": "Feature", "properties": {"norad_id": 66629, "name": "STARLINK-35956", "group": "last-30-days", "lat": -24.291610436581106, "lon": 31.513193669148837, "alt_km": 408.9200386549919, "timestamp": "2025-12-11T18:59:44.811259+00:00", "meta": {"OBJECT_NAME": "STARLINK-35956", "OBJECT_ID": "2025-271N", "EPOCH": "2025-12-11T06:00:02.999808", "MEAN_MOTION": 15.56430467, "ECCENTRICITY": 0.00010901, "INCLINATION": 53.1598, "RA_OF_ASC_NODE": 194.3473, "ARG_OF_PERICENTER": 77.4139, "MEAN_ANOMALY": 340.255, "EPHEMERIS_TYPE": 0, "CLASSIFICATION_TYPE": "U", "NORAD_CAT_ID": 66629, "ELEMENT_SET_NO": 999, "REV_AT_EPOCH": 400, "BSTAR": -0.032933323, "MEAN_MOTION_DOT": -0.02108257, "MEAN_MOTION_DDOT": 0}, "tle": {"line1": "1 66629U 25271N   25345.25003472 -.02108257  00000+0 -32933-1 0  9995", "line2": "2 66629  53.1598 194.3473 0001090  77.4139 340.2550 15.56430467  4008"}}, "geometry": {"type": "Point", "coordinates": [31.513193669148837, -24.291610436581106]}}, {"type": "Feature", "properties": {"norad_id": 66630, "name": "STARLINK-35949", "group": "last-30-days", "lat": -25.725216438221995, "lon": 32.90502780246045, "alt_km": 409.0698216340297, "timestamp": "2025-12-11T18:59:44.811270+00:00", "meta": {"OBJECT_NAME": "STARLINK-35949", "OBJECT_ID": "2025-271P", "EPOCH": "2025-12-11T06:00:02.999808", "MEAN_MOTION": 15.56430543, "ECCENTRICITY": 9.274e-05, "INCLINATION": 53.1598, "RA_OF_ASC_NODE": 194.342, "ARG_OF_PERICENTER": 95.8727, "MEAN_ANOMALY": 323.7138, "EPHEMERIS_TYPE": 0, "CLASSIFICATION_TYPE": "U", "NORAD_CAT_ID": 66630, "ELEMENT_SET_NO": 999, "REV_AT_EPOCH": 400, "BSTAR": -0.032956105, "MEAN_MOTION_DOT": -0.02109454, "MEAN_MOTION_DDOT": 0}, "tle": {"line1": "1 66630U 25271P   25345.25003472 -.02109454  00000+0 -32956-1 0  9992", "line2": "2 66630  53.1598 194.3420 0000927  95.8727 323.7138 15.56430543  4000"}}, "geometry": {"type": "Point", "coordinates": [32.90502780246045, -25.725216438221995]}}, {"type": "Feature", "properties": {"norad_id": 66631, "name": "STARLINK-35965", "group": "last-30-days", "lat": -27.14839877582776, "lon": 34.33639570972817, "alt_km": 409.1144723932166, "timestamp": "2025-12-11T18:59:44.811280+00:00", "meta": {"OBJECT_NAME": "STARLINK-35965", "OBJECT_ID": "2025-271Q", "EPOCH": "2025-12-11T06:00:02.999808", "MEAN_MOTION": 15.56428581, "ECCENTRICITY": 0.0001053, "INCLINATION": 53.1598, "RA_OF_ASC_NODE": 194.339, "ARG_OF_PERICENTER": 83.0056, "MEAN_ANOMALY": 338.4965, "EPHEMERIS_TYPE": 0, "CLASSIFICATION_TYPE": "U", "NORAD_CAT_ID": 66631, "ELEMENT_SET_NO": 999, "REV_AT_EPOCH": 400, "BSTAR": -0.032880748, "MEAN_MOTION_DOT": -0.02105106, "MEAN_MOTION_DDOT": 0}, "tle": {"line1": "1 66631U 25271Q   25345.25003472 -.02105106  00000+0 -32881-1 0  9990", "line2": "2 66631  53.1598 194.3390 0001053  83.0056 338.4965 15.56428581  4002"}}, "geometry": {"type": "Point", "coordinates": [34.33639570972817, -27.14839877582776]}}, {"type": "Feature", "properties": {"norad_id": 66632, "name": "STARLINK-35973", "group": "last-30-days", "lat": -28.55640383808581, "lon": 35.8031435780243, "alt_km": 409.2749138916615, "timestamp": "2025-12-11T18:59:44.811292+00:00", "meta": {"OBJECT_NAME": "STARLINK-35973", "OBJECT_ID": "2025-271R", "EPOCH": "2025-12-11T06:00:02.999808", "MEAN_MOTION": 15.56427914, "ECCENTRICITY": 0.00010657, "INCLINATION": 53.1598, "RA_OF_ASC_NODE": 194.3348, "ARG_OF_PERICENTER": 75.8338, "MEAN_ANOMALY": 347.5854, "EPHEMERIS_TYPE": 0, "CLASSIFICATION_TYPE": "U", "NORAD_CAT_ID": 66632, "ELEMENT_SET_NO": 999, "REV_AT_EPOCH": 394, "BSTAR": -0.03283051, "MEAN_MOTION_DOT": -0.02102205, "MEAN_MOTION_DDOT": 0}, "tle": {"line1": "1 66632U 25271R   25345.25003472 -.02102205  00000+0 -32831-1 0  9993", "line2": "2 66632  53.1598 194.3348 0001065  75.8338 347.5854 15.56427914  3940"}}, "geometry": {"type": "Point", "coordinates": [35.8031435780243, -28.55640383808581]}}, {"type": "Feature", "properties": {"norad_id": 66633, "name": "STARLINK-35948", "group": "last-30-days", "lat": -29.945167538108148, "lon": 37.30547472813326, "alt_km": 409.4363153460117, "timestamp": "2025-12-11T18:59:44.811304+00:00", "meta": {"OBJECT_NAME": "STARLINK-35948", "OBJECT_ID": "2025-271S", "EPOCH": "2025-12-11T06:00:02.999808", "MEAN_MOTION": 15.56424799, "ECCENTRICITY": 8.987e-05, "INCLINATION": 53.1598, "RA_OF_ASC_NODE": 194.3298, "ARG_OF_PERICENTER": 92.3179, "MEAN_ANOMALY": 333.0209, "EPHEMERIS_TYPE": 0, "CLASSIFICATION_TYPE": "U", "NORAD_CAT_ID": 66633, "ELEMENT_SET_NO": 999, "REV_AT_EPOCH": 400, "BSTAR": -0.032783561, "MEAN_MOTION_DOT": -0.02099204, "MEAN_MOTION_DDOT": 0}, "tle": {"line1": "1 66633U 25271S   25345.25003472 -.02099204  00000+0 -32784-1 0  9995", "line2": "2 66633  53.1598 194.3298 0000898  92.3179 333.0209 15.56424799  4005"}}, "geometry": {"type": "Point", "coordinates": [37.30547472813326, -29.945167538108148]}}, {"type": "Feature", "properties": {"norad_id": 66634, "name": "STARLINK-35967", "group": "last-30-days", "lat": -31.322178843541696, "lon": 38.85759993025517, "alt_km": 409.40495927652046, "timestamp": "2025-12-11T18:59:44.811314+00:00", "meta": {"OBJECT_NAME": "STARLINK-35967", "OBJECT_ID": "2025-271T", "EPOCH": "2025-12-11T06:00:02.999808", "MEAN_MOTION": 15.56422128, "ECCENTRICITY": 0.00010373, "INCLINATION": 53.1599, "RA_OF_ASC_NODE": 194.3255, "ARG_OF_PERICENTER": 84.7668, "MEAN_ANOMALY": 342.4876, "EPHEMERIS_TYPE": 0, "CLASSIFICATION_TYPE": "U", "NORAD_CAT_ID": 66634, "ELEMENT_SET_NO": 999, "REV_AT_EPOCH": 393, "BSTAR": -0.032649432, "MEAN_MOTION_DOT": -0.02091457, "MEAN_MOTION_DDOT": 0}, "tle": {"line1": "1 66634U 25271T   25345.25003472 -.02091457  00000+0 -32649-1 0  9998", "line2": "2 66634  53.1599 194.3255 0001037  84.7668 342.4876 15.56422128  3933"}}, "geometry": {"type": "Point", "coordinates": [38.85759993025517, -31.322178843541696]}}, {"type": "Feature", "properties": {"norad_id": 66635, "name": "STARLINK-35955", "group": "last-30-days", "lat": -32.67066919280662, "lon": 40.44544639089963, "alt_km": 409.6230062383611, "timestamp": "2025-12-11T18:59:44.811324+00:00", "meta": {"OBJECT_NAME": "STARLINK-35955", "OBJECT_ID": "2025-271U", "EPOCH": "2025-12-11T06:00:02.999808", "MEAN_MOTION": 15.56433294, "ECCENTRICITY": 0.00010891, "INCLINATION": 53.1597, "RA_OF_ASC_NODE": 194.3218, "ARG_OF_PERICENTER": 76.8541, "MEAN_ANOMALY": 352.3147, "EPHEMERIS_TYPE": 0, "CLASSIFICATION_TYPE": "U", "NORAD_CAT_ID": 66635, "ELEMENT_SET_NO": 999, "REV_AT_EPOCH": 400, "BSTAR": -0.032990648, "MEAN_MOTION_DOT": -0.0211172, "MEAN_MOTION_DDOT": 0}, "tle": {"line1": "1 66635U 25271U   25345.25003472 -.02111720  00000+0 -32991-1 0  9995", "line2": "2 66635  53.1597 194.3218 0001089  76.8541 352.3147 15.56433294  4006"}}, "geometry": {"type": "Point", "coordinates": [40.44544639089963, -32.67066919280662]}}, {"type": "Feature", "properties": {"norad_id": 66636, "name": "STARLINK-35968", "group": "last-30-days", "lat": -34.00259428252839, "lon": 42.08642630233195, "alt_km": 409.73475882769617, "timestamp": "2025-12-11T18:59:44.811334+00:00", "meta": {"OBJECT_NAME": "STARLINK-35968", "OBJECT_ID": "2025-271V", "EPOCH": "2025-12-11T06:00:02.999808", "MEAN_MOTION": 15.56431664, "ECCENTRICITY": 0.00010961, "INCLINATION": 53.1595, "RA_OF_ASC_NODE": 194.3176, "ARG_OF_PERICENTER": 73.8232, "MEAN_ANOMALY": 357.2615, "EPHEMERIS_TYPE": 0, "CLASSIFICATION_TYPE": "U", "NORAD_CAT_ID": 66636, "ELEMENT_SET_NO": 999, "REV_AT_EPOCH": 400, "BSTAR": -0.032935182, "MEAN_MOTION_DOT": -0.02108451, "MEAN_MOTION_DDOT": 0}, "tle": {"line1": "1 66636U 25271V   25345.25003472 -.02108451  00000+0 -32935-1 0  9991", "line2": "2 66636  53.1595 194.3176 0001096  73.8232 357.2615 15.56431664  4003"}}, "geometry": {"type": "Point", "coordinates": [42.08642630233195, -34.00259428252839]}}, {"type": "Feature", "properties": {"norad_id": 66637, "name": "STARLINK-35953", "group": "last-30-days", "lat": -35.31118282687746, "lon": 43.778420419941426, "alt_km": 409.83055140626857, "timestamp": "2025-12-11T18:59:44.811346+00:00", "meta": {"OBJECT_NAME": "STARLINK-35953", "OBJECT_ID": "2025-271W", "EPOCH": "2025-12-11T06:00:02.999808", "MEAN_MOTION": 15.56434368, "ECCENTRICITY": 0.00010827, "INCLINATION": 53.1597, "RA_OF_ASC_NODE": 194.3139, "ARG_OF_PERICENTER": 74.2301, "MEAN_ANOMALY": 358.7736, "EPHEMERIS_TYPE": 0, "CLASSIFICATION_TYPE": "U", "NORAD_CAT_ID": 66637, "ELEMENT_SET_NO": 999, "REV_AT_EPOCH": 400, "BSTAR": -0.033056686, "MEAN_MOTION_DOT": -0.0211555, "MEAN_MOTION_DDOT": 0}, "tle": {"line1": "1 66637U 25271W   25345.25003472 -.02115550  00000+0 -33057-1 0  9996", "line2": "2 66637  53.1597 194.3139 0001082  74.2301 358.7736 15.56434368  4006"}}, "geometry": {"type": "Point", "coordinates": [43.778420419941426, -35.31118282687746]}}, {"type": "Feature", "properties": {"norad_id": 66638, "name": "STARLINK-35972", "group": "last-30-days", "lat": -36.59746151346094, "lon": 45.528877570529474, "alt_km": 409.8549487479622, "timestamp": "2025-12-11T18:59:44.811356+00:00", "meta": {"OBJECT_NAME": "STARLINK-35972", "OBJECT_ID": "2025-271X", "EPOCH": "2025-12-11T06:00:02.999808", "MEAN_MOTION": 15.56427502, "ECCENTRICITY": 0.0001084, "INCLINATION": 53.1597, "RA_OF_ASC_NODE": 194.3102, "ARG_OF_PERICENTER": 81.7895, "MEAN_ANOMALY": 353.1309, "EPHEMERIS_TYPE": 0, "CLASSIFICATION_TYPE": "U", "NORAD_CAT_ID": 66638, "ELEMENT_SET_NO": 999, "REV_AT_EPOCH": 400, "BSTAR": -0.03286314, "MEAN_MOTION_DOT": -0.02104047, "MEAN_MOTION_DDOT": 0}, "tle": {"line1": "1 66638U 25271X   25345.25003472 -.02104047  00000+0 -32863-1 0  9990", "line2": "2 66638  53.1597 194.3102 0001084  81.7895 353.1309 15.56427502  4007"}}, "geometry": {"type": "Point", "coordinates": [45.528877570529474, -36.59746151346094]}}]}